[{"OBJECT_NAME":"STARLINK-34155","OBJECT_ID":"2025-101AB","EPOCH":"2026-03-09T16:00:03.000096","MEAN_MOTION":15.27548469,"ECCENTRICITY":0.00014066,"INCLINATION":43.0017,"RA_OF_ASC_NODE":358.2204,"ARG_OF_PERICENTER":280.9514,"MEAN_ANOMALY":314.4148,"EPHEMERIS_TYPE":0,"CLASSIFICATION_TYPE":"U","NORAD_CAT_ID":64019,"ELEMENT_SET_NO":999,"REV_AT_EPOCH":587,"BSTAR":0.0012939423,"MEAN_MOTION_DOT":0.00035482,"MEAN_MOTION_DDOT":0},{"OBJECT_NAME":"SL-19 R\/B","OBJECT_ID":"2011-005B","EPOCH":"2026-03-09T21:50:35.538720","MEAN_MOTION":15.57556472,"ECCENTRICITY":0.01260184,"INCLINATION":99.3438,"RA_OF_ASC_NODE":178.5978,"ARG_OF_PERICENTER":174.8144,"MEAN_ANOMALY":185.4445,"EPHEMERIS_TYPE":0,"CLASSIFICATION_TYPE":"U","NORAD_CAT_ID":37363,"ELEMENT_SET_NO":999,"REV_AT_EPOCH":82354,"BSTAR":0.00054776137,"MEAN_MOTION_DOT":0.00058791,"MEAN_MOTION_DDOT":0}]
